{
  "type": "Feature",
  "geometry": {
    "type": "Polygon",
    "coordinates": [
      [
        [
          121.369523,
          31.289438731672927
        ],
        [
          121.37066180061876,
          31.290336376467746
        ],
        [
          121.37206400935388,
          31.29078325058225
        ],
        [
          121.37323341270866,
          31.290309169605603
        ],
        [
          121.37366885044183,
          31.28903941771766
        ],
        [
          121.37425141437755,
          31.288207706147016
        ],
        [
          121.37559603378314,
          31.287813443987634
        ],
        [
          121.37687566954561,
          31.287104030782725
        ],
        [
          121.37765066308101,
          31.286041744668506
        ],
        [
          121.37810317219292,
          31.284817
        ],
        [
          121.37814279498626,
          31.28351809675465
        ],
        [
          121.37732414625171,
          31.282390471579607
        ],
        [
          121.37598578891252,
          31.281628250246293
        ],
        [
          121.37559277455615,
          31.28046441576029
        ],
        [
          121.37474853718426,
          31.279494955439855
        ],
        [
          121.37373644829938,
          31.278580234847002
        ],
        [
          121.3720510699808,
          31.27888113086521
        ],
        [
          121.37072868730854,
          31.278973446660995
        ],
        [
          121.369523,
          31.279375129416298
        ],
        [
          121.36848469220854,
          31.27978467783919
        ],
        [
          121.3676090213616,
          31.280323007819952
        ],
        [
          121.36660111900028,
          31.280492018582063
        ],
        [
          121.3659870976474,
          31.281215795144455
        ],
        [
          121.3655690030841,
          31.281981622095802
        ],
        [
          121.36553518131322,
          31.282849404271985
        ],
        [
          121.36498738966775,
          31.283406208941873
        ],
        [
          121.3639154198564,
          31.283972002635366
        ],
        [
          121.36296047750442,
          31.284817
        ],
        [
          121.36232958860589,
          31.28590096376246
        ],
        [
          121.36332171594542,
          31.286745895000283
        ],
        [
          121.36462419875754,
          31.287234075888886
        ],
        [
          121.36541591669045,
          31.287762154868425
        ],
        [
          121.36541896736654,
          31.288996827600762
        ],
        [
          121.36591685177187,
          31.29015483685184
        ],
        [
          121.36723633534746,
          31.290186053165392
        ],
        [
          121.36849960091972,
          31.289777064745106
        ],
        [
          121.369523,
          31.289438731672927
        ]
      ]
    ]
  },
  "properties": {
    "minutes": 15.0,
    "area_m2": 1303887.5,
    "area_km2": 1.3039,
    "mean_radius_m": 638.7,
    "min_radius_m": 438.1,
    "max_radius_m": 832.7,
    "compactness": 0.526,
    "mean_detour": 2.154,
    "max_detour": 3.911,
    "sampled_points": 252,
    "failed_points": 0,
    "rays": [
      {
        "bearing": 0.0,
        "radius_m": 514.5,
        "detour": 3.689,
        "barrier": false
      },
      {
        "bearing": 10.0,
        "radius_m": 623.9,
        "detour": 3.647,
        "barrier": false
      },
      {
        "bearing": 20.0,
        "radius_m": 706.8,
        "detour": 2.922,
        "barrier": false
      },
      {
        "bearing": 30.0,
        "radius_m": 706.0,
        "detour": 3.069,
        "barrier": false
      },
      {
        "bearing": 40.0,
        "radius_m": 613.6,
        "detour": 2.981,
        "barrier": false
      },
      {
        "bearing": 50.0,
        "radius_m": 587.2,
        "detour": 2.342,
        "barrier": false
      },
      {
        "bearing": 60.0,
        "radius_m": 667.1,
        "detour": 2.031,
        "barrier": false
      },
      {
        "bearing": 70.0,
        "radius_m": 744.4,
        "detour": 1.92,
        "barrier": false
      },
      {
        "bearing": 80.0,
        "radius_m": 785.1,
        "detour": 1.731,
        "barrier": false
      },
      {
        "bearing": 90.0,
        "radius_m": 816.3,
        "detour": 1.62,
        "barrier": false
      },
      {
        "bearing": 100.0,
        "radius_m": 832.7,
        "detour": 1.524,
        "barrier": false
      },
      {
        "bearing": 110.0,
        "radius_m": 789.8,
        "detour": 1.215,
        "barrier": false
      },
      {
        "bearing": 120.0,
        "radius_m": 709.9,
        "detour": 1.218,
        "barrier": false
      },
      {
        "bearing": 130.0,
        "radius_m": 753.8,
        "detour": 1.372,
        "barrier": false
      },
      {
        "bearing": 140.0,
        "radius_m": 773.4,
        "detour": 1.169,
        "barrier": false
      },
      {
        "bearing": 150.0,
        "radius_m": 801.7,
        "detour": 2.423,
        "barrier": false
      },
      {
        "bearing": 160.0,
        "radius_m": 703.2,
        "detour": 2.501,
        "barrier": false
      },
      {
        "bearing": 170.0,
        "radius_m": 660.5,
        "detour": 2.832,
        "barrier": false
      },
      {
        "bearing": 180.0,
        "radius_m": 605.8,
        "detour": 2.801,
        "barrier": false
      },
      {
        "bearing": 190.0,
        "radius_m": 568.8,
        "detour": 2.986,
        "barrier": false
      },
      {
        "bearing": 200.0,
        "radius_m": 532.4,
        "detour": 3.13,
        "barrier": false
      },
      {
        "bearing": 210.0,
        "radius_m": 555.9,
        "detour": 2.971,
        "barrier": false
      },
      {
        "bearing": 220.0,
        "radius_m": 523.3,
        "detour": 3.196,
        "barrier": false
      },
      {
        "bearing": 230.0,
        "radius_m": 491.0,
        "detour": 2.234,
        "barrier": false
      },
      {
        "bearing": 240.0,
        "radius_m": 438.1,
        "detour": 2.18,
        "barrier": false
      },
      {
        "bearing": 250.0,
        "radius_m": 459.2,
        "detour": 1.646,
        "barrier": false
      },
      {
        "bearing": 260.0,
        "radius_m": 541.7,
        "detour": 1.436,
        "barrier": false
      },
      {
        "bearing": 270.0,
        "radius_m": 624.3,
        "detour": 1.396,
        "barrier": false
      },
      {
        "bearing": 280.0,
        "radius_m": 694.9,
        "detour": 1.193,
        "barrier": false
      },
      {
        "bearing": 290.0,
        "radius_m": 627.8,
        "detour": 1.232,
        "barrier": false
      },
      {
        "bearing": 300.0,
        "radius_m": 538.1,
        "detour": 1.288,
        "barrier": false
      },
      {
        "bearing": 310.0,
        "radius_m": 510.1,
        "detour": 1.385,
        "barrier": false
      },
      {
        "bearing": 320.0,
        "radius_m": 607.4,
        "detour": 1.336,
        "barrier": false
      },
      {
        "bearing": 330.0,
        "radius_m": 686.1,
        "detour": 1.396,
        "barrier": false
      },
      {
        "bearing": 340.0,
        "radius_m": 636.0,
        "detour": 1.614,
        "barrier": false
      },
      {
        "bearing": 350.0,
        "radius_m": 560.7,
        "detour": 3.911,
        "barrier": false
      }
    ],
    "center": {
      "lat": 31.284817,
      "lng": 121.369523
    },
    "name": "上海市普陀区桃浦镇",
    "generated_at": "2026-09-17T15:46:07",
    "coverage": {
      "categories": {
        "生鲜采买": 0,
        "医药": 0,
        "基础教育": 0,
        "基础医疗": 0,
        "养老服务": 0,
        "文体休闲": 0
      },
      "nearby_categories": {
        "生鲜采买": 7,
        "医药": 8,
        "基础教育": 2,
        "基础医疗": 6,
        "养老服务": 12,
        "文体休闲": 12
      },
      "failed_categories": [],
      "searches": 17,
      "radius_m": 1832,
      "clean_stats": {
        "生鲜采买": {
          "raw": 10,
          "invalid": 0,
          "excluded": 0,
          "out_of_range": 1,
          "duplicated": 2,
          "dropped": 3
        },
        "医药": {
          "raw": 16,
          "invalid": 0,
          "excluded": 0,
          "out_of_range": 0,
          "duplicated": 8,
          "dropped": 8
        },
        "基础教育": {
          "raw": 2,
          "invalid": 0,
          "excluded": 0,
          "out_of_range": 0,
          "duplicated": 0,
          "dropped": 0
        },
        "基础医疗": {
          "raw": 10,
          "invalid": 0,
          "excluded": 0,
          "out_of_range": 0,
          "duplicated": 4,
          "dropped": 4
        },
        "养老服务": {
          "raw": 15,
          "invalid": 0,
          "excluded": 0,
          "out_of_range": 0,
          "duplicated": 3,
          "dropped": 3
        },
        "文体休闲": {
          "raw": 12,
          "invalid": 0,
          "excluded": 0,
          "out_of_range": 0,
          "duplicated": 0,
          "dropped": 0
        }
      },
      "source": "预生成快照，检索半径 1832 米",
      "places": [
        {
          "category": "生鲜采买",
          "name": "TAO爱吧生活体验馆真南集市",
          "lat": 31.285713,
          "lng": 121.351385,
          "in_circle": false
        },
        {
          "category": "生鲜采买",
          "name": "桃浦三村菜场",
          "lat": 31.286251,
          "lng": 121.350894,
          "in_circle": false
        },
        {
          "category": "生鲜采买",
          "name": "真南蔬菜大厅",
          "lat": 31.285671,
          "lng": 121.350716,
          "in_circle": false
        },
        {
          "category": "生鲜采买",
          "name": "鲜蔬荟生鲜集市",
          "lat": 31.292113,
          "lng": 121.358655,
          "in_circle": false
        },
        {
          "category": "生鲜采买",
          "name": "精选生鲜",
          "lat": 31.290276,
          "lng": 121.359999,
          "in_circle": false
        },
        {
          "category": "生鲜采买",
          "name": "华环生鲜",
          "lat": 31.295425,
          "lng": 121.355747,
          "in_circle": false
        },
        {
          "category": "生鲜采买",
          "name": "叮咚买菜",
          "lat": 31.27272,
          "lng": 121.377222,
          "in_circle": false
        },
        {
          "category": "医药",
          "name": "国大复美大药房",
          "lat": 31.287953,
          "lng": 121.36087,
          "in_circle": false
        },
        {
          "category": "医药",
          "name": "益丰大药房",
          "lat": 31.287429,
          "lng": 121.358114,
          "in_circle": false
        },
        {
          "category": "医药",
          "name": "华氏大药房",
          "lat": 31.291296,
          "lng": 121.36017,
          "in_circle": false
        },
        {
          "category": "医药",
          "name": "上海益丰大药房",
          "lat": 31.28927,
          "lng": 121.357927,
          "in_circle": false
        },
        {
          "category": "医药",
          "name": "第一医药",
          "lat": 31.291356,
          "lng": 121.354554,
          "in_circle": false
        },
        {
          "category": "医药",
          "name": "好药师大药房",
          "lat": 31.276403,
          "lng": 121.384208,
          "in_circle": false
        },
        {
          "category": "医药",
          "name": "益丰大药房",
          "lat": 31.289985,
          "lng": 121.352459,
          "in_circle": false
        },
        {
          "category": "医药",
          "name": "益丰大药房",
          "lat": 31.293225,
          "lng": 121.353672,
          "in_circle": false
        },
        {
          "category": "基础教育",
          "name": "上海市普陀区联建小学",
          "lat": 31.290736,
          "lng": 121.35766,
          "in_circle": false
        },
        {
          "category": "基础教育",
          "name": "上海市普陀区新普陀小学",
          "lat": 31.291773,
          "lng": 121.353249,
          "in_circle": false
        },
        {
          "category": "基础医疗",
          "name": "桃浦镇社区卫生服务中心",
          "lat": 31.287551,
          "lng": 121.361462,
          "in_circle": false
        },
        {
          "category": "基础医疗",
          "name": "白丽路社区卫生服务站",
          "lat": 31.285963,
          "lng": 121.355853,
          "in_circle": false
        },
        {
          "category": "基础医疗",
          "name": "秋桂路社区卫生服务站",
          "lat": 31.291386,
          "lng": 121.354684,
          "in_circle": false
        },
        {
          "category": "基础医疗",
          "name": "未来岛社区卫生服务站",
          "lat": 31.269516,
          "lng": 121.369995,
          "in_circle": false
        },
        {
          "category": "基础医疗",
          "name": "秋桂路社区卫生服务站-发热门诊",
          "lat": 31.291357,
          "lng": 121.354692,
          "in_circle": false
        },
        {
          "category": "基础医疗",
          "name": "未来岛社区卫生服务站-发热门诊",
          "lat": 31.269524,
          "lng": 121.369986,
          "in_circle": false
        },
        {
          "category": "养老服务",
          "name": "普陀区桃浦老年护理院",
          "lat": 31.287276,
          "lng": 121.361465,
          "in_circle": false
        },
        {
          "category": "养老服务",
          "name": "普陀区百丽敬老院",
          "lat": 31.289107,
          "lng": 121.35721,
          "in_circle": false
        },
        {
          "category": "养老服务",
          "name": "桃浦镇阳光之家",
          "lat": 31.289132,
          "lng": 121.35317,
          "in_circle": false
        },
        {
          "category": "养老服务",
          "name": "普陀区桃浦镇社区事务受理服务中心",
          "lat": 31.290701,
          "lng": 121.358474,
          "in_circle": false
        },
        {
          "category": "养老服务",
          "name": "桃浦镇社区卫生服务中心",
          "lat": 31.287551,
          "lng": 121.361462,
          "in_circle": false
        },
        {
          "category": "养老服务",
          "name": "桃浦镇社区党群服务中心",
          "lat": 31.286748,
          "lng": 121.357264,
          "in_circle": false
        },
        {
          "category": "养老服务",
          "name": "普陀区桃浦镇社区事务受理服务中心-南门",
          "lat": 31.290492,
          "lng": 121.358408,
          "in_circle": false
        },
        {
          "category": "养老服务",
          "name": "人社综合服务窗口",
          "lat": 31.290655,
          "lng": 121.358498,
          "in_circle": false
        },
        {
          "category": "养老服务",
          "name": "桃浦镇社区卫生服务中心-西门",
          "lat": 31.287709,
          "lng": 121.36095,
          "in_circle": false
        },
        {
          "category": "养老服务",
          "name": "白丽苑社区党群服务中心",
          "lat": 31.28845,
          "lng": 121.355569,
          "in_circle": false
        },
        {
          "category": "养老服务",
          "name": "桃浦镇社区卫生服务中心-停车场",
          "lat": 31.287576,
          "lng": 121.361359,
          "in_circle": false
        },
        {
          "category": "养老服务",
          "name": "白丽社区服务中心治安办公室",
          "lat": 31.289541,
          "lng": 121.358851,
          "in_circle": false
        },
        {
          "category": "文体休闲",
          "name": "春光公园",
          "lat": 31.28056,
          "lng": 121.363539,
          "in_circle": false
        },
        {
          "category": "文体休闲",
          "name": "缘园",
          "lat": 31.290788,
          "lng": 121.368191,
          "in_circle": false
        },
        {
          "category": "文体休闲",
          "name": "桃浦中央绿地-B区",
          "lat": 31.288836,
          "lng": 121.379874,
          "in_circle": false
        },
        {
          "category": "文体休闲",
          "name": "绥德公园",
          "lat": 31.274749,
          "lng": 121.363064,
          "in_circle": false
        },
        {
          "category": "文体休闲",
          "name": "韩塔园",
          "lat": 31.29004,
          "lng": 121.378333,
          "in_circle": false
        },
        {
          "category": "文体休闲",
          "name": "桃浦中央绿地-C区",
          "lat": 31.295148,
          "lng": 121.376289,
          "in_circle": false
        },
        {
          "category": "文体休闲",
          "name": "觉醒的敦煌·神兽出动XR展",
          "lat": 31.282326,
          "lng": 121.378735,
          "in_circle": false
        },
        {
          "category": "文体休闲",
          "name": "桃浦镇图书馆",
          "lat": 31.286644,
          "lng": 121.357226,
          "in_circle": false
        },
        {
          "category": "文体休闲",
          "name": "COREFITNESS",
          "lat": 31.276511,
          "lng": 121.382869,
          "in_circle": false
        },
        {
          "category": "文体休闲",
          "name": "琪航健身工作室",
          "lat": 31.287997,
          "lng": 121.356325,
          "in_circle": false
        },
        {
          "category": "文体休闲",
          "name": "中田健身工作室",
          "lat": 31.289559,
          "lng": 121.360486,
          "in_circle": false
        },
        {
          "category": "文体休闲",
          "name": "乐刻运动健身",
          "lat": 31.290602,
          "lng": 121.360209,
          "in_circle": false
        }
      ]
    },
    "blindspots": {
      "grid_spacing_m": 150.0,
      "walk_limit_m": 1000.0,
      "cell_count": 56,
      "blind_count": 56,
      "max_reach_s": 1228,
      "blind_ratio": {
        "生鲜采买": 0.929,
        "医药": 0.821,
        "基础教育": 1.0
      },
      "cells": [
        {
          "lat": 31.279928,
          "lng": 121.368637,
          "reach_s": 899,
          "nearest_m": {
            "生鲜采买": null,
            "医药": null,
            "基础教育": null
          },
          "missing": [
            "生鲜采买",
            "医药",
            "基础教育"
          ],
          "unknown": []
        },
        {
          "lat": 31.279928,
          "lng": 121.370213,
          "reach_s": 770,
          "nearest_m": {
            "生鲜采买": null,
            "医药": null,
            "基础教育": null
          },
          "missing": [
            "生鲜采买",
            "医药",
            "基础教育"
          ],
          "unknown": []
        },
        {
          "lat": 31.279928,
          "lng": 121.37179,
          "reach_s": 647,
          "nearest_m": {
            "生鲜采买": 2830,
            "医药": null,
            "基础教育": null
          },
          "missing": [
            "生鲜采买",
            "医药",
            "基础教育"
          ],
          "unknown": []
        },
        {
          "lat": 31.279928,
          "lng": 121.373367,
          "reach_s": 652,
          "nearest_m": {
            "生鲜采买": 2615,
            "医药": null,
            "基础教育": null
          },
          "missing": [
            "生鲜采买",
            "医药",
            "基础教育"
          ],
          "unknown": []
        },
        {
          "lat": 31.279928,
          "lng": 121.374943,
          "reach_s": 766,
          "nearest_m": {
            "生鲜采买": 2607,
            "医药": 1155,
            "基础教育": null
          },
          "missing": [
            "生鲜采买",
            "医药",
            "基础教育"
          ],
          "unknown": []
        },
        {
          "lat": 31.281275,
          "lng": 121.36706,
          "reach_s": 721,
          "nearest_m": {
            "生鲜采买": null,
            "医药": 1293,
            "基础教育": null
          },
          "missing": [
            "生鲜采买",
            "医药",
            "基础教育"
          ],
          "unknown": []
        },
        {
          "lat": 31.281275,
          "lng": 121.368637,
          "reach_s": 760,
          "nearest_m": {
            "生鲜采买": null,
            "医药": null,
            "基础教育": null
          },
          "missing": [
            "生鲜采买",
            "医药",
            "基础教育"
          ],
          "unknown": []
        },
        {
          "lat": 31.281275,
          "lng": 121.370213,
          "reach_s": 589,
          "nearest_m": {
            "生鲜采买": null,
            "医药": null,
            "基础教育": null
          },
          "missing": [
            "生鲜采买",
            "医药",
            "基础教育"
          ],
          "unknown": []
        },
        {
          "lat": 31.281275,
          "lng": 121.37179,
          "reach_s": 537,
          "nearest_m": {
            "生鲜采买": null,
            "医药": null,
            "基础教育": null
          },
          "missing": [
            "生鲜采买",
            "医药",
            "基础教育"
          ],
          "unknown": []
        },
        {
          "lat": 31.281275,
          "lng": 121.373367,
          "reach_s": 681,
          "nearest_m": {
            "生鲜采买": null,
            "医药": null,
            "基础教育": null
          },
          "missing": [
            "生鲜采买",
            "医药",
            "基础教育"
          ],
          "unknown": []
        },
        {
          "lat": 31.281275,
          "lng": 121.374943,
          "reach_s": 850,
          "nearest_m": {
            "生鲜采买": 2705,
            "医药": null,
            "基础教育": null
          },
          "missing": [
            "生鲜采买",
            "医药",
            "基础教育"
          ],
          "unknown": []
        },
        {
          "lat": 31.282623,
          "lng": 121.36706,
          "reach_s": 648,
          "nearest_m": {
            "生鲜采买": null,
            "医药": 1094,
            "基础教育": null
          },
          "missing": [
            "生鲜采买",
            "医药",
            "基础教育"
          ],
          "unknown": []
        },
        {
          "lat": 31.282623,
          "lng": 121.368637,
          "reach_s": 630,
          "nearest_m": {
            "生鲜采买": null,
            "医药": 1243,
            "基础教育": null
          },
          "missing": [
            "生鲜采买",
            "医药",
            "基础教育"
          ],
          "unknown": []
        },
        {
          "lat": 31.282623,
          "lng": 121.370213,
          "reach_s": 506,
          "nearest_m": {
            "生鲜采买": null,
            "医药": null,
            "基础教育": null
          },
          "missing": [
            "生鲜采买",
            "医药",
            "基础教育"
          ],
          "unknown": []
        },
        {
          "lat": 31.282623,
          "lng": 121.37179,
          "reach_s": 366,
          "nearest_m": {
            "生鲜采买": null,
            "医药": null,
            "基础教育": null
          },
          "missing": [
            "生鲜采买",
            "医药",
            "基础教育"
          ],
          "unknown": []
        },
        {
          "lat": 31.282623,
          "lng": 121.373367,
          "reach_s": 603,
          "nearest_m": {
            "生鲜采买": null,
            "医药": null,
            "基础教育": null
          },
          "missing": [
            "生鲜采买",
            "医药",
            "基础教育"
          ],
          "unknown": []
        },
        {
          "lat": 31.282623,
          "lng": 121.374943,
          "reach_s": 734,
          "nearest_m": {
            "生鲜采买": null,
            "医药": null,
            "基础教育": null
          },
          "missing": [
            "生鲜采买",
            "医药",
            "基础教育"
          ],
          "unknown": []
        },
        {
          "lat": 31.282623,
          "lng": 121.37652,
          "reach_s": 830,
          "nearest_m": {
            "生鲜采买": null,
            "医药": null,
            "基础教育": null
          },
          "missing": [
            "生鲜采买",
            "医药",
            "基础教育"
          ],
          "unknown": []
        },
        {
          "lat": 31.28397,
          "lng": 121.365483,
          "reach_s": 686,
          "nearest_m": {
            "生鲜采买": 1065,
            "医药": 786,
            "基础教育": null
          },
          "missing": [
            "生鲜采买",
            "基础教育"
          ],
          "unknown": []
        },
        {
          "lat": 31.28397,
          "lng": 121.36706,
          "reach_s": 543,
          "nearest_m": {
            "生鲜采买": 1280,
            "医药": 1001,
            "基础教育": null
          },
          "missing": [
            "生鲜采买",
            "医药",
            "基础教育"
          ],
          "unknown": []
        },
        {
          "lat": 31.28397,
          "lng": 121.368637,
          "reach_s": 328,
          "nearest_m": {
            "生鲜采买": null,
            "医药": 1076,
            "基础教育": null
          },
          "missing": [
            "生鲜采买",
            "医药",
            "基础教育"
          ],
          "unknown": []
        },
        {
          "lat": 31.28397,
          "lng": 121.370213,
          "reach_s": 101,
          "nearest_m": {
            "生鲜采买": null,
            "医药": 1240,
            "基础教育": null
          },
          "missing": [
            "生鲜采买",
            "医药",
            "基础教育"
          ],
          "unknown": []
        },
        {
          "lat": 31.28397,
          "lng": 121.37179,
          "reach_s": 193,
          "nearest_m": {
            "生鲜采买": null,
            "医药": null,
            "基础教育": null
          },
          "missing": [
            "生鲜采买",
            "医药",
            "基础教育"
          ],
          "unknown": []
        },
        {
          "lat": 31.28397,
          "lng": 121.373367,
          "reach_s": 378,
          "nearest_m": {
            "生鲜采买": null,
            "医药": null,
            "基础教育": null
          },
          "missing": [
            "生鲜采买",
            "医药",
            "基础教育"
          ],
          "unknown": []
        },
        {
          "lat": 31.28397,
          "lng": 121.374943,
          "reach_s": 814,
          "nearest_m": {
            "生鲜采买": null,
            "医药": null,
            "基础教育": null
          },
          "missing": [
            "生鲜采买",
            "医药",
            "基础教育"
          ],
          "unknown": []
        },
        {
          "lat": 31.28397,
          "lng": 121.37652,
          "reach_s": 614,
          "nearest_m": {
            "生鲜采买": null,
            "医药": null,
            "基础教育": null
          },
          "missing": [
            "生鲜采买",
            "医药",
            "基础教育"
          ],
          "unknown": []
        },
        {
          "lat": 31.28397,
          "lng": 121.378097,
          "reach_s": 743,
          "nearest_m": {
            "生鲜采买": null,
            "医药": null,
            "基础教育": null
          },
          "missing": [
            "生鲜采买",
            "医药",
            "基础教育"
          ],
          "unknown": []
        },
        {
          "lat": 31.285318,
          "lng": 121.363906,
          "reach_s": 722,
          "nearest_m": {
            "生鲜采买": 892,
            "医药": 613,
            "基础教育": 1305
          },
          "missing": [
            "基础教育"
          ],
          "unknown": []
        },
        {
          "lat": 31.285318,
          "lng": 121.365483,
          "reach_s": 568,
          "nearest_m": {
            "生鲜采买": 915,
            "医药": 636,
            "基础教育": 1346
          },
          "missing": [
            "基础教育"
          ],
          "unknown": []
        },
        {
          "lat": 31.285318,
          "lng": 121.36706,
          "reach_s": 387,
          "nearest_m": {
            "生鲜采买": 1068,
            "医药": 789,
            "基础教育": null
          },
          "missing": [
            "生鲜采买",
            "基础教育"
          ],
          "unknown": []
        },
        {
          "lat": 31.285318,
          "lng": 121.368637,
          "reach_s": 170,
          "nearest_m": {
            "生鲜采买": 1199,
            "医药": 920,
            "基础教育": null
          },
          "missing": [
            "生鲜采买",
            "基础教育"
          ],
          "unknown": []
        },
        {
          "lat": 31.285318,
          "lng": 121.370213,
          "reach_s": 82,
          "nearest_m": {
            "生鲜采买": null,
            "医药": 1069,
            "基础教育": null
          },
          "missing": [
            "生鲜采买",
            "医药",
            "基础教育"
          ],
          "unknown": []
        },
        {
          "lat": 31.285318,
          "lng": 121.37179,
          "reach_s": 324,
          "nearest_m": {
            "生鲜采买": null,
            "医药": null,
            "基础教育": null
          },
          "missing": [
            "生鲜采买",
            "医药",
            "基础教育"
          ],
          "unknown": []
        },
        {
          "lat": 31.285318,
          "lng": 121.373367,
          "reach_s": 727,
          "nearest_m": {
            "生鲜采买": null,
            "医药": null,
            "基础教育": null
          },
          "missing": [
            "生鲜采买",
            "医药",
            "基础教育"
          ],
          "unknown": []
        },
        {
          "lat": 31.285318,
          "lng": 121.374943,
          "reach_s": 528,
          "nearest_m": {
            "生鲜采买": null,
            "医药": null,
            "基础教育": null
          },
          "missing": [
            "生鲜采买",
            "医药",
            "基础教育"
          ],
          "unknown": []
        },
        {
          "lat": 31.285318,
          "lng": 121.37652,
          "reach_s": 1195,
          "nearest_m": {
            "生鲜采买": null,
            "医药": null,
            "基础教育": null
          },
          "missing": [
            "生鲜采买",
            "医药",
            "基础教育"
          ],
          "unknown": []
        },
        {
          "lat": 31.286665,
          "lng": 121.363906,
          "reach_s": 621,
          "nearest_m": {
            "生鲜采买": 670,
            "医药": 391,
            "基础教育": 1083
          },
          "missing": [
            "基础教育"
          ],
          "unknown": []
        },
        {
          "lat": 31.286665,
          "lng": 121.365483,
          "reach_s": 516,
          "nearest_m": {
            "生鲜采买": 868,
            "医药": 589,
            "基础教育": 1281
          },
          "missing": [
            "基础教育"
          ],
          "unknown": []
        },
        {
          "lat": 31.286665,
          "lng": 121.36706,
          "reach_s": 502,
          "nearest_m": {
            "生鲜采买": 1093,
            "医药": 814,
            "基础教育": null
          },
          "missing": [
            "生鲜采买",
            "基础教育"
          ],
          "unknown": []
        },
        {
          "lat": 31.286665,
          "lng": 121.368637,
          "reach_s": 486,
          "nearest_m": {
            "生鲜采买": 1306,
            "医药": 1027,
            "基础教育": null
          },
          "missing": [
            "生鲜采买",
            "医药",
            "基础教育"
          ],
          "unknown": []
        },
        {
          "lat": 31.286665,
          "lng": 121.370213,
          "reach_s": 744,
          "nearest_m": {
            "生鲜采买": null,
            "医药": 1438,
            "基础教育": null
          },
          "missing": [
            "生鲜采买",
            "医药",
            "基础教育"
          ],
          "unknown": []
        },
        {
          "lat": 31.286665,
          "lng": 121.37179,
          "reach_s": 366,
          "nearest_m": {
            "生鲜采买": null,
            "医药": null,
            "基础教育": null
          },
          "missing": [
            "生鲜采买",
            "医药",
            "基础教育"
          ],
          "unknown": []
        },
        {
          "lat": 31.286665,
          "lng": 121.373367,
          "reach_s": 461,
          "nearest_m": {
            "生鲜采买": null,
            "医药": null,
            "基础教育": null
          },
          "missing": [
            "生鲜采买",
            "医药",
            "基础教育"
          ],
          "unknown": []
        },
        {
          "lat": 31.286665,
          "lng": 121.374943,
          "reach_s": 654,
          "nearest_m": {
            "生鲜采买": null,
            "医药": null,
            "基础教育": null
          },
          "missing": [
            "生鲜采买",
            "医药",
            "基础教育"
          ],
          "unknown": []
        },
        {
          "lat": 31.286665,
          "lng": 121.37652,
          "reach_s": 1138,
          "nearest_m": {
            "生鲜采买": null,
            "医药": null,
            "基础教育": null
          },
          "missing": [
            "生鲜采买",
            "医药",
            "基础教育"
          ],
          "unknown": []
        },
        {
          "lat": 31.288013,
          "lng": 121.365483,
          "reach_s": 645,
          "nearest_m": {
            "生鲜采买": 1018,
            "医药": 739,
            "基础教育": 1431
          },
          "missing": [
            "生鲜采买",
            "基础教育"
          ],
          "unknown": []
        },
        {
          "lat": 31.288013,
          "lng": 121.36706,
          "reach_s": 638,
          "nearest_m": {
            "生鲜采买": 1253,
            "医药": 974,
            "基础教育": 1666
          },
          "missing": [
            "生鲜采买",
            "基础教育"
          ],
          "unknown": []
        },
        {
          "lat": 31.288013,
          "lng": 121.368637,
          "reach_s": 740,
          "nearest_m": {
            "生鲜采买": 1390,
            "医药": 1111,
            "基础教育": null
          },
          "missing": [
            "生鲜采买",
            "医药",
            "基础教育"
          ],
          "unknown": []
        },
        {
          "lat": 31.288013,
          "lng": 121.370213,
          "reach_s": 622,
          "nearest_m": {
            "生鲜采买": null,
            "医药": 1316,
            "基础教育": null
          },
          "missing": [
            "生鲜采买",
            "医药",
            "基础教育"
          ],
          "unknown": []
        },
        {
          "lat": 31.288013,
          "lng": 121.37179,
          "reach_s": 504,
          "nearest_m": {
            "生鲜采买": null,
            "医药": null,
            "基础教育": null
          },
          "missing": [
            "生鲜采买",
            "医药",
            "基础教育"
          ],
          "unknown": []
        },
        {
          "lat": 31.288013,
          "lng": 121.373367,
          "reach_s": 1228,
          "nearest_m": {
            "生鲜采买": null,
            "医药": null,
            "基础教育": null
          },
          "missing": [
            "生鲜采买",
            "医药",
            "基础教育"
          ],
          "unknown": []
        },
        {
          "lat": 31.28936,
          "lng": 121.36706,
          "reach_s": 780,
          "nearest_m": {
            "生鲜采买": 1418,
            "医药": 1139,
            "基础教育": 1831
          },
          "missing": [
            "生鲜采买",
            "医药",
            "基础教育"
          ],
          "unknown": []
        },
        {
          "lat": 31.28936,
          "lng": 121.368637,
          "reach_s": 583,
          "nearest_m": {
            "生鲜采买": 1419,
            "医药": 1140,
            "基础教育": null
          },
          "missing": [
            "生鲜采买",
            "医药",
            "基础教育"
          ],
          "unknown": []
        },
        {
          "lat": 31.28936,
          "lng": 121.370213,
          "reach_s": 709,
          "nearest_m": {
            "生鲜采买": 1780,
            "医药": 1651,
            "基础教育": null
          },
          "missing": [
            "生鲜采买",
            "医药",
            "基础教育"
          ],
          "unknown": []
        },
        {
          "lat": 31.28936,
          "lng": 121.37179,
          "reach_s": 625,
          "nearest_m": {
            "生鲜采买": null,
            "医药": null,
            "基础教育": null
          },
          "missing": [
            "生鲜采买",
            "医药",
            "基础教育"
          ],
          "unknown": []
        },
        {
          "lat": 31.28936,
          "lng": 121.373367,
          "reach_s": 1111,
          "nearest_m": {
            "生鲜采买": null,
            "医药": null,
            "基础教育": null
          },
          "missing": [
            "生鲜采买",
            "医药",
            "基础教育"
          ],
          "unknown": []
        }
      ]
    },
    "report": {
      "total": 23.6,
      "grade": "弱",
      "dimensions": {
        "reach": 35.6,
        "compact": 52.6,
        "detour": 7.7,
        "cover": 0.0,
        "equity": 8.3
      },
      "blinds": [
        "生鲜采买",
        "医药",
        "基础教育",
        "基础医疗",
        "养老服务",
        "文体休闲"
      ],
      "ideal_area_km2": 3.664,
      "area_ratio": 0.356,
      "straight_inflation": 2.81,
      "categories": {
        "生鲜采买": 0,
        "医药": 0,
        "基础教育": 0,
        "基础医疗": 0,
        "养老服务": 0,
        "文体休闲": 0
      },
      "failed_categories": [],
      "blind_ratio": {
        "生鲜采买": 0.929,
        "医药": 0.821,
        "基础教育": 1.0
      },
      "blind_cell_count": 56,
      "cell_count": 56,
      "coverage_source": "预生成快照，检索半径 1832 米",
      "coverage_pending": false,
      "blindspots_pending": false
    },
    "rings": [
      {
        "minutes": 5,
        "coordinates": [
          [
            121.369523,
            31.285511177232447
          ],
          [
            121.36966576774606,
            31.285508946355655
          ],
          [
            121.36980757676463,
            31.28548518183296
          ],
          [
            121.37011696111685,
            31.285696183920766
          ],
          [
            121.37053866687458,
            31.285851424629307
          ],
          [
            121.37103384806733,
            31.285900416430977
          ],
          [
            121.37124457817868,
            31.285666429258416
          ],
          [
            121.37147289219003,
            31.285423509436324
          ],
          [
            121.37183153891868,
            31.285164870070954
          ],
          [
            121.37209925817909,
            31.284817
          ],
          [
            121.3721576560498,
            31.284419987855408
          ],
          [
            121.37178207224385,
            31.28411432082613
          ],
          [
            121.37129719578613,
            31.283941609135063
          ],
          [
            121.37085517260694,
            31.283861710237602
          ],
          [
            121.37046023740129,
            31.283862453311844
          ],
          [
            121.3701824797189,
            31.28384083514932
          ],
          [
            121.36992861287874,
            31.283864627246935
          ],
          [
            121.36972632666105,
            31.28383154532974
          ],
          [
            121.369523,
            31.28386500231519
          ],
          [
            121.36934406220132,
            31.283949749790505
          ],
          [
            121.36917572895256,
            31.28400161296263
          ],
          [
            121.36896063385329,
            31.283984583096366
          ],
          [
            121.36871679266767,
            31.283995903298155
          ],
          [
            121.36843849389022,
            31.2840393097979
          ],
          [
            121.36822860663212,
            31.284178344368673
          ],
          [
            121.36802859174806,
            31.284352167784576
          ],
          [
            121.36781776922763,
            31.284560041477455
          ],
          [
            121.36765024263336,
            31.284817
          ],
          [
            121.36750347354196,
            31.285121319241306
          ],
          [
            121.36734157057263,
            31.285495528556165
          ],
          [
            121.36737167752801,
            31.285878465738023
          ],
          [
            121.36753272792264,
            31.286244207352848
          ],
          [
            121.36783125079855,
            31.286539993123437
          ],
          [
            121.36848418544979,
            31.28635465797676
          ],
          [
            121.36901048485011,
            31.28602037762898
          ],
          [
            121.36938366358174,
            31.285492315885303
          ],
          [
            121.369523,
            31.285511177232447
          ]
        ]
      },
      {
        "minutes": 10,
        "coordinates": [
          [
            121.369523,
            31.286205354464897
          ],
          [
            121.36980853549213,
            31.28620089271131
          ],
          [
            121.37009215352926,
            31.286153363665925
          ],
          [
            121.37085461264333,
            31.286788059033157
          ],
          [
            121.37188507440256,
            31.287222698166815
          ],
          [
            121.37327578350794,
            31.287508089463135
          ],
          [
            121.37405357022337,
            31.28705239015114
          ],
          [
            121.37410397836891,
            31.28624190268054
          ],
          [
            121.37478540489298,
            31.28560998345317
          ],
          [
            121.37468859737947,
            31.284817
          ],
          [
            121.37468921936927,
            31.284038510590957
          ],
          [
            121.37352628721173,
            31.283571786811983
          ],
          [
            121.37289916979186,
            31.28315119275517
          ],
          [
            121.37316864234617,
            31.282202740562067
          ],
          [
            121.3731322261282,
            31.2811411171951
          ],
          [
            121.37227633268257,
            31.280741504560364
          ],
          [
            121.37116787842862,
            31.28095485094197
          ],
          [
            121.37016133552456,
            31.281723206394016
          ],
          [
            121.369523,
            31.28217055954031
          ],
          [
            121.36912317991276,
            31.282879209007866
          ],
          [
            121.36879968777639,
            31.283118674108888
          ],
          [
            121.36825200771045,
            31.282935671487596
          ],
          [
            121.3675423987061,
            31.282799820144547
          ],
          [
            121.36697115328425,
            31.28298709220122
          ],
          [
            121.36662355312818,
            31.283386408559743
          ],
          [
            121.36637041654225,
            31.28383639623857
          ],
          [
            121.36617572179638,
            31.284312603952447
          ],
          [
            121.36570431848207,
            31.284817
          ],
          [
            121.36511231032074,
            31.28548163983746
          ],
          [
            121.36494022571684,
            31.2862424612955
          ],
          [
            121.36539560126708,
            31.286853464732364
          ],
          [
            121.36620069916648,
            31.287199393961053
          ],
          [
            121.36660427817534,
            31.287789625983084
          ],
          [
            121.36769105543473,
            31.287528652597842
          ],
          [
            121.36857816926995,
            31.287035447911133
          ],
          [
            121.36924432716349,
            31.28616763177061
          ],
          [
            121.369523,
            31.286205354464897
          ]
        ]
      }
    ]
  }
}
