{
  "type": "Feature",
  "geometry": {
    "type": "Polygon",
    "coordinates": [
      [
        [
          121.416775,
          31.255868872194913
        ],
        [
          121.41828788028849,
          31.255314275607503
        ],
        [
          121.41969497813501,
          31.25483774053722
        ],
        [
          121.42067635363034,
          31.253756056140887
        ],
        [
          121.42170440943573,
          31.253001408167993
        ],
        [
          121.4225354812284,
          31.25211140557448
        ],
        [
          121.4231939754146,
          31.251147368798012
        ],
        [
          121.42324578637334,
          31.24999250899112
        ],
        [
          121.42296101822296,
          31.248911525268944
        ],
        [
          121.42366382749101,
          31.247979
        ],
        [
          121.42410665503269,
          31.246873773126314
        ],
        [
          121.42494119890044,
          31.245437930961305
        ],
        [
          121.4244771433768,
          31.244177266985517
        ],
        [
          121.42351717625478,
          31.243142354304148
        ],
        [
          121.42149101516092,
          31.243174012024582
        ],
        [
          121.41976169667602,
          31.2435563518609
        ],
        [
          121.41874637012027,
          31.24334844609425
        ],
        [
          121.41798235881535,
          31.24212506050777
        ],
        [
          121.416775,
          31.24111994009568
        ],
        [
          121.41530564817697,
          31.24085477433035
        ],
        [
          121.41405387062098,
          31.241587335571012
        ],
        [
          121.41289917413359,
          31.242239744924927
        ],
        [
          121.41191859765634,
          31.243030976283183
        ],
        [
          121.41104738483949,
          31.24387017160887
        ],
        [
          121.41036042948267,
          31.24481280543357
        ],
        [
          121.40995620252039,
          31.245857200694374
        ],
        [
          121.40942873971369,
          31.246871571424414
        ],
        [
          121.40923132931098,
          31.247979
        ],
        [
          121.40908144921019,
          31.249138781665813
        ],
        [
          121.4093150190398,
          31.250300315813927
        ],
        [
          121.40977252705632,
          31.251435379772573
        ],
        [
          121.41054985141282,
          31.252444744736188
        ],
        [
          121.41142031190482,
          31.25343471017725
        ],
        [
          121.41225883086534,
          31.254666464173916
        ],
        [
          121.41350750503153,
          31.25565402329101
        ],
        [
          121.41511454182758,
          31.25602981434544
        ],
        [
          121.416775,
          31.255868872194913
        ]
      ]
    ]
  },
  "properties": {
    "minutes": 15.0,
    "area_m2": 1756506.8,
    "area_km2": 1.7565,
    "mean_radius_m": 745.8,
    "min_radius_m": 548.6,
    "max_radius_m": 910.0,
    "compactness": 0.603,
    "sampled_points": 252,
    "failed_points": 0,
    "center": {
      "lat": 31.247979,
      "lng": 121.416775
    },
    "name": "上海市普陀区曹杨新村街道",
    "generated_at": "2026-09-13T14:24:06"
  }
}